CCSDS_OMM_VERS = 2.0
CREATION_DATE  = 
ORIGINATOR     = 

OBJECT_NAME    = STARLINK-37118
OBJECT_ID      = 2026-057F
CENTER_NAME    = EARTH
REF_FRAME      = TEME
TIME_SYSTEM    = UTC
MEAN_ELEMENT_THEORY = SGP/SGP4

EPOCH          = 2026-03-27T06:00:02.999808
MEAN_MOTION    = 16.05171637
ECCENTRICITY   = .00013289
INCLINATION    = 97.2818
RA_OF_ASC_NODE = 209.2239
ARG_OF_PERICENTER = 50.2340
MEAN_ANOMALY   = 47.0043

EPHEMERIS_TYPE = 0
CLASSIFICATION_TYPE = U
NORAD_CAT_ID   = 68299
ELEMENT_SET_NO = 999
REV_AT_EPOCH   = 197
BSTAR          = -.12772412E-2
MEAN_MOTION_DOT = -.873963E-2
MEAN_MOTION_DDOT = .27129217E-3

CCSDS_OMM_VERS = 2.0
CREATION_DATE  = 
ORIGINATOR     = 

OBJECT_NAME    = STARLINK-36875
OBJECT_ID      = 2026-057G
CENTER_NAME    = EARTH
REF_FRAME      = TEME
TIME_SYSTEM    = UTC
MEAN_ELEMENT_THEORY = SGP/SGP4

EPOCH          = 2026-03-27T06:00:02.999808
MEAN_MOTION    = 16.05066047
ECCENTRICITY   = .00013054
INCLINATION    = 97.2819
RA_OF_ASC_NODE = 209.2230
ARG_OF_PERICENTER = 50.2189
MEAN_ANOMALY   = 45.3856

EPHEMERIS_TYPE = 0
CLASSIFICATION_TYPE = U
NORAD_CAT_ID   = 68300
ELEMENT_SET_NO = 999
REV_AT_EPOCH   = 203
BSTAR          = -.12883299E-2
MEAN_MOTION_DOT = -.875921E-2
MEAN_MOTION_DDOT = .27207002E-3

CCSDS_OMM_VERS = 2.0
CREATION_DATE  = 
ORIGINATOR     = 

OBJECT_NAME    = STARLINK-37099
OBJECT_ID      = 2026-057H
CENTER_NAME    = EARTH
REF_FRAME      = TEME
TIME_SYSTEM    = UTC
MEAN_ELEMENT_THEORY = SGP/SGP4

EPOCH          = 2026-03-27T06:00:02.999808
MEAN_MOTION    = 16.05329906
ECCENTRICITY   = .00014112
INCLINATION    = 97.2816
RA_OF_ASC_NODE = 209.2252
ARG_OF_PERICENTER = 52.2699
MEAN_ANOMALY   = 47.2887

EPHEMERIS_TYPE = 0
CLASSIFICATION_TYPE = U
NORAD_CAT_ID   = 68301
ELEMENT_SET_NO = 999
REV_AT_EPOCH   = 186
BSTAR          = -.12678608E-2
MEAN_MOTION_DOT = -.875901E-2
MEAN_MOTION_DDOT = .27293495E-3

CCSDS_OMM_VERS = 2.0
CREATION_DATE  = 
ORIGINATOR     = 

OBJECT_NAME    = STARLINK-37007
OBJECT_ID      = 2026-057J
CENTER_NAME    = EARTH
REF_FRAME      = TEME
TIME_SYSTEM    = UTC
MEAN_ELEMENT_THEORY = SGP/SGP4

EPOCH          = 2026-03-27T06:00:02.999808
MEAN_MOTION    = 16.05635935
ECCENTRICITY   = .00012751
INCLINATION    = 97.2813
RA_OF_ASC_NODE = 209.2270
ARG_OF_PERICENTER = 52.5434
MEAN_ANOMALY   = 51.5806

EPHEMERIS_TYPE = 0
CLASSIFICATION_TYPE = U
NORAD_CAT_ID   = 68302
ELEMENT_SET_NO = 999
REV_AT_EPOCH   = 208
BSTAR          = -.12358761E-2
MEAN_MOTION_DOT = -.869857E-2
MEAN_MOTION_DDOT = .27046608E-3

CCSDS_OMM_VERS = 2.0
CREATION_DATE  = 
ORIGINATOR     = 

OBJECT_NAME    = STARLINK-36300
OBJECT_ID      = 2026-057K
CENTER_NAME    = EARTH
REF_FRAME      = TEME
TIME_SYSTEM    = UTC
MEAN_ELEMENT_THEORY = SGP/SGP4

EPOCH          = 2026-03-27T06:00:02.999808
MEAN_MOTION    = 16.05499472
ECCENTRICITY   = .00012084
INCLINATION    = 97.2814
RA_OF_ASC_NODE = 209.2260
ARG_OF_PERICENTER = 54.9436
MEAN_ANOMALY   = 47.0786

EPHEMERIS_TYPE = 0
CLASSIFICATION_TYPE = U
NORAD_CAT_ID   = 68303
ELEMENT_SET_NO = 999
REV_AT_EPOCH   = 213
BSTAR          = -.12537678E-2
MEAN_MOTION_DOT = -.875103E-2
MEAN_MOTION_DDOT = .27304031E-3

CCSDS_OMM_VERS = 2.0
CREATION_DATE  = 
ORIGINATOR     = 

OBJECT_NAME    = STARLINK-36849
OBJECT_ID      = 2026-057L
CENTER_NAME    = EARTH
REF_FRAME      = TEME
TIME_SYSTEM    = UTC
MEAN_ELEMENT_THEORY = SGP/SGP4

EPOCH          = 2026-03-27T06:00:02.999808
MEAN_MOTION    = 16.05743699
ECCENTRICITY   = .00013336
INCLINATION    = 97.2815
RA_OF_ASC_NODE = 209.2277
ARG_OF_PERICENTER = 54.3378
MEAN_ANOMALY   = 51.4002

EPHEMERIS_TYPE = 0
CLASSIFICATION_TYPE = U
NORAD_CAT_ID   = 68304
ELEMENT_SET_NO = 999
REV_AT_EPOCH   = 203
BSTAR          = -.12233373E-2
MEAN_MOTION_DOT = -.866738E-2
MEAN_MOTION_DDOT = .26902673E-3

CCSDS_OMM_VERS = 2.0
CREATION_DATE  = 
ORIGINATOR     = 

OBJECT_NAME    = STARLINK-36277
OBJECT_ID      = 2026-057M
CENTER_NAME    = EARTH
REF_FRAME      = TEME
TIME_SYSTEM    = UTC
MEAN_ELEMENT_THEORY = SGP/SGP4

EPOCH          = 2026-03-27T06:00:02.999808
MEAN_MOTION    = 16.06003783
ECCENTRICITY   = .00012552
INCLINATION    = 97.2811
RA_OF_ASC_NODE = 209.2292
ARG_OF_PERICENTER = 50.7044
MEAN_ANOMALY   = 58.8460

EPHEMERIS_TYPE = 0
CLASSIFICATION_TYPE = U
NORAD_CAT_ID   = 68305
ELEMENT_SET_NO = 999
REV_AT_EPOCH   = 219
BSTAR          = -.11894456E-2
MEAN_MOTION_DOT = -.856291E-2
MEAN_MOTION_DDOT = .26389131E-3

CCSDS_OMM_VERS = 2.0
CREATION_DATE  = 
ORIGINATOR     = 

OBJECT_NAME    = STARLINK-36307
OBJECT_ID      = 2026-057N
CENTER_NAME    = EARTH
REF_FRAME      = TEME
TIME_SYSTEM    = UTC
MEAN_ELEMENT_THEORY = SGP/SGP4

EPOCH          = 2026-03-27T06:00:02.999808
MEAN_MOTION    = 16.05853229
ECCENTRICITY   = .00012811
INCLINATION    = 97.2814
RA_OF_ASC_NODE = 209.2288
ARG_OF_PERICENTER = 56.5394
MEAN_ANOMALY   = 50.7809

EPHEMERIS_TYPE = 0
CLASSIFICATION_TYPE = U
NORAD_CAT_ID   = 68306
ELEMENT_SET_NO = 999
REV_AT_EPOCH   = 213
BSTAR          = -.12194049E-2
MEAN_MOTION_DOT = -.869716E-2
MEAN_MOTION_DDOT = .27110828E-3

CCSDS_OMM_VERS = 2.0
CREATION_DATE  = 
ORIGINATOR     = 

OBJECT_NAME    = STARLINK-36264
OBJECT_ID      = 2026-057P
CENTER_NAME    = EARTH
REF_FRAME      = TEME
TIME_SYSTEM    = UTC
MEAN_ELEMENT_THEORY = SGP/SGP4

EPOCH          = 2026-03-27T06:00:02.999808
MEAN_MOTION    = 16.06175129
ECCENTRICITY   = .00012799
INCLINATION    = 97.2812
RA_OF_ASC_NODE = 209.2303
ARG_OF_PERICENTER = 53.1259
MEAN_ANOMALY   = 58.8173

EPHEMERIS_TYPE = 0
CLASSIFICATION_TYPE = U
NORAD_CAT_ID   = 68307
ELEMENT_SET_NO = 999
REV_AT_EPOCH   = 219
BSTAR          = -.11839776E-2
MEAN_MOTION_DOT = -.861317E-2
MEAN_MOTION_DDOT = .26733693E-3

CCSDS_OMM_VERS = 2.0
CREATION_DATE  = 
ORIGINATOR     = 

OBJECT_NAME    = STARLINK-37138
OBJECT_ID      = 2026-057Q
CENTER_NAME    = EARTH
REF_FRAME      = TEME
TIME_SYSTEM    = UTC
MEAN_ELEMENT_THEORY = SGP/SGP4

EPOCH          = 2026-03-27T06:00:02.999808
MEAN_MOTION    = 16.06260469
ECCENTRICITY   = .00013581
INCLINATION    = 97.2806
RA_OF_ASC_NODE = 209.2306
ARG_OF_PERICENTER = 51.7000
MEAN_ANOMALY   = 61.6162

EPHEMERIS_TYPE = 0
CLASSIFICATION_TYPE = U
NORAD_CAT_ID   = 68308
ELEMENT_SET_NO = 999
REV_AT_EPOCH   = 186
BSTAR          = -.1174728E-2
MEAN_MOTION_DOT = -.859106E-2
MEAN_MOTION_DDOT = .26634739E-3

CCSDS_OMM_VERS = 2.0
CREATION_DATE  = 
ORIGINATOR     = 

OBJECT_NAME    = STARLINK-37149
OBJECT_ID      = 2026-057R
CENTER_NAME    = EARTH
REF_FRAME      = TEME
TIME_SYSTEM    = UTC
MEAN_ELEMENT_THEORY = SGP/SGP4

EPOCH          = 2026-03-27T06:00:02.999808
MEAN_MOTION    = 16.06379069
ECCENTRICITY   = .00012996
INCLINATION    = 97.2805
RA_OF_ASC_NODE = 209.2309
ARG_OF_PERICENTER = 52.4527
MEAN_ANOMALY   = 62.6447

EPHEMERIS_TYPE = 0
CLASSIFICATION_TYPE = U
NORAD_CAT_ID   = 68309
ELEMENT_SET_NO = 999
REV_AT_EPOCH   = 197
BSTAR          = -.11609473E-2
MEAN_MOTION_DOT = -.855261E-2
MEAN_MOTION_DDOT = .26453084E-3

CCSDS_OMM_VERS = 2.0
CREATION_DATE  = 
ORIGINATOR     = 

OBJECT_NAME    = STARLINK-37148
OBJECT_ID      = 2026-057S
CENTER_NAME    = EARTH
REF_FRAME      = TEME
TIME_SYSTEM    = UTC
MEAN_ELEMENT_THEORY = SGP/SGP4

EPOCH          = 2026-03-27T06:00:02.999808
MEAN_MOTION    = 16.06639875
ECCENTRICITY   = .00012908
INCLINATION    = 97.2805
RA_OF_ASC_NODE = 209.2328
ARG_OF_PERICENTER = 53.9468
MEAN_ANOMALY   = 64.8618

EPHEMERIS_TYPE = 0
CLASSIFICATION_TYPE = U
NORAD_CAT_ID   = 68310
ELEMENT_SET_NO = 999
REV_AT_EPOCH   = 208
BSTAR          = -.11408503E-2
MEAN_MOTION_DOT = -.854084E-2
MEAN_MOTION_DDOT = .26471499E-3

