STARLINK-37118          
1 68299U 26057F   26086.25003472 -.00873963  27129-3 -12772-2 0  9992
2 68299  97.2818 209.2239 0001328  50.2340  47.0043 16.05171637  1978
STARLINK-36875          
1 68300U 26057G   26086.25003472 -.00875921  27207-3 -12883-2 0  9991
2 68300  97.2819 209.2230 0001305  50.2189  45.3856 16.05066047  2038
STARLINK-37099          
1 68301U 26057H   26086.25003472 -.00875901  27293-3 -12679-2 0  9998
2 68301  97.2816 209.2252 0001411  52.2699  47.2887 16.05329906  1867
STARLINK-37007          
1 68302U 26057J   26086.25003472 -.00869857  27047-3 -12359-2 0  9994
2 68302  97.2813 209.2270 0001275  52.5434  51.5806 16.05635935  2089
STARLINK-36300          
1 68303U 26057K   26086.25003472 -.00875103  27304-3 -12538-2 0  9991
2 68303  97.2814 209.2260 0001208  54.9436  47.0786 16.05499472  2131
STARLINK-36849          
1 68304U 26057L   26086.25003472 -.00866738  26903-3 -12233-2 0  9992
2 68304  97.2815 209.2277 0001333  54.3378  51.4002 16.05743699  2031
STARLINK-36277          
1 68305U 26057M   26086.25003472 -.00856291  26389-3 -11894-2 0  9996
2 68305  97.2811 209.2292 0001255  50.7044  58.8460 16.06003783  2198
STARLINK-36307          
1 68306U 26057N   26086.25003472 -.00869716  27111-3 -12194-2 0  9991
2 68306  97.2814 209.2288 0001281  56.5394  50.7809 16.05853229  2137
STARLINK-36264          
1 68307U 26057P   26086.25003472 -.00861317  26734-3 -11840-2 0  9998
2 68307  97.2812 209.2303 0001279  53.1259  58.8173 16.06175129  2190
STARLINK-37138          
1 68308U 26057Q   26086.25003472 -.00859106  26635-3 -11747-2 0  9998
2 68308  97.2806 209.2306 0001358  51.7000  61.6162 16.06260469  1868
STARLINK-37149          
1 68309U 26057R   26086.25003472 -.00855261  26453-3 -11609-2 0  9992
2 68309  97.2805 209.2309 0001299  52.4527  62.6447 16.06379069  1973
STARLINK-37148          
1 68310U 26057S   26086.25003472 -.00854084  26471-3 -11409-2 0  9994
2 68310  97.2805 209.2328 0001290  53.9468  64.8618 16.06639875  2088
